#cP2021  9 27  0  0  0.00000000      96 ORBIT IGb14 HLM  IGS
## 2177  86400.00000000   900.00000000 59484 0.0000000000000
+   32   G01G02G03G04G05G06G07G08G09G10G11G12G13G14G15G16G17
+        G18G19G20G21G22G23G24G25G26G27G28G29G30G31G32  0  0
+          0  0  0  0  0  0  0  0  0  0  0  0  0  0  0  0  0
+          0  0  0  0  0  0  0  0  0  0  0  0  0  0  0  0  0
+          0  0  0  0  0  0  0  0  0  0  0  0  0  0  0  0  0
++         2  2  1  2  1  1  2  2  2  2  0  2  2  2  2  2  2
++         2  2  1  2  1  2  2  2  1  2  2  2  2  2  2  0  0
++         0  0  0  0  0  0  0  0  0  0  0  0  0  0  0  0  0
++         0  0  0  0  0  0  0  0  0  0  0  0  0  0  0  0  0
++         0  0  0  0  0  0  0  0  0  0  0  0  0  0  0  0  0
%c G  cc GPS ccc cccc cccc cccc cccc ccccc ccccc ccccc ccccc
%c cc cc ccc ccc cccc cccc cccc cccc ccccc ccccc ccccc ccccc
%f  1.2500000  1.025000000  0.00000000000  0.000000000000000
%f  0.0000000  0.000000000  0.00000000000  0.000000000000000
%i    0    0    0    0      0      0      0      0         0
%i    0    0    0    0      0      0      0      0         0
/* FINAL ORBIT COMBINATION FROM WEIGHTED AVERAGE OF:        
/* cod emr esa gfz grg jpl mit ngs sio                      
/* REFERENCED TO IGS TIME (IGST) AND TO WEIGHTED MEAN POLE: 
/* PCV:IGS14_2175 OL/AL:FES2004  NONE     Y  ORB:CMB CLK:CMB
*  2021  9 27 15  0  0.00000000
PG01   3729.376163  14324.408814 -22330.137631    555.489186  5  5  3  83       
PG02  18731.589152 -14869.089515  12290.979472   -634.577591  5  4  4  80       
PG03  10105.517891  21967.172412 -11214.974080   -304.308219  3  4  5  86       
PG04   1275.538800  23381.170596  12474.554531   -204.147287  5  6  7  84       
PG05   2045.694324 -17453.238852  19700.687880    -55.792301  3  4  3 101       
PG06  25907.324261  -5987.093512    -47.933280     82.804010  2  6  5  77       
PG07  19208.352523   8121.811684  17095.243612    252.792888  2  6  3  85       
PG08  -5957.631190  25647.584689  -1754.429758    -38.009053  5  6  4  80       
PG09  10225.076317  14731.229451  19515.797624   -361.452647  4  4  4  87       
PG10 -20986.950283  -7931.774495 -14317.367415   -212.012643  5  4  4  70       
PG11  20990.570397 -11687.229102  11299.360999 999999.999999
PG12  -7734.219401 -22566.408020 -12068.080182   -103.414693  5  5  1  73       
PG13  13210.625832 -22581.503548   3941.141822    191.475102  7  9  6  62       
PG14  20674.231973   8197.179444 -14560.651912     -7.441238  3  5  5  79       
PG15   2595.862440 -26152.725032  -2596.914000   -118.062038  5  6  6  83       
PG16  -7675.257294  13621.059564  21151.690126   -397.660427  6  5  1  92       
PG17  15047.038529    658.341783 -21444.732445    510.898353  6  5  4  78       
PG18 -20305.565453  -6743.560130  15786.001827    317.410042  4  5  3  76       
PG19  17133.257307  -8373.246080 -18686.704689     58.466101  6  7  5  90       
PG20  12187.614477 -10172.153105  21242.466253    518.929262  2  3  3  92       
PG21  -5245.170639  16117.088085 -19614.452084    144.856991  5  6  4  81       
PG22   4413.460156  20095.806016 -16734.214602   -502.974486  1  6  4  85       
PG23 -20505.016928 -16378.905817  -4370.185752     52.164782  4  4  5  38       
PG24    623.287484 -16465.847401 -21034.420307    243.393912  6  5  4  61       
PG25 -16302.687982 -20891.614840  -3592.788934    215.222794  5  1  5  65       
PG26 -17244.894255   3544.259737  19904.207888    138.822096     2     73       
PG27 -12153.224643  21997.607479   7806.906150   -198.677456  6  7  4  95       
PG28  18117.130244   2541.194424 -18636.340047    493.218347  2  5  4  84       
PG29  -6444.009328 -17760.554118  18595.134192   -417.991767  5  6  3  67       
PG30  25570.563979    360.584402   7683.200608   -477.010665  7  5  5  98       
PG31 -25862.309311   6801.049480   1920.112727   -141.981965  3  4  3  89       
PG32 -16161.335278   3549.112855 -20624.427620     -4.438542  4  6  5  41       
*  2021  9 27 15 15  0.00000000
PG01   1321.537461  14924.778183 -22178.039127    555.479361  5  5  3  90       
PG02  19903.255760 -15078.228586   9819.148139   -634.579088  5  5  4  56       
PG03   8988.697570  21106.402876 -13581.143141   -304.320494  3  4  5  92       
PG04    688.828875  24550.632926  10028.234421   -204.147088  5  6  7  89       
PG05   3842.444314 -15934.830255  20699.614949    -55.793489  4  4  3 107       
PG06  25783.154168  -5766.265642  -2941.545359     82.811099  2  6  5  79       
PG07  17336.823715   8744.202146  18702.935227    252.799177  2  6  3  87       
PG08  -6222.347585  25618.192306   1130.818568    -38.009304  4  6  4  84       
PG09   9571.330123  16804.496550  18125.587984   -361.452868  5  4  5  94       
PG10 -21944.487023  -9116.334273 -12037.073120   -212.019855  5  4  5  59       
PG11  22163.082233 -11699.004155   8766.167502 999999.999999
PG12  -6646.283007 -21565.673838 -14363.102704   -103.419785  5  5  1  71       
PG13  13190.742939 -21908.274112   6733.659005    191.480320  7  9  6  57       
PG14  21562.757229   9469.946953 -12333.970316     -7.448336  3  5  5  69       
PG15   2975.306596 -26197.645896    210.635197   -118.059575  4  6  5  98       
PG16  -9326.899402  11737.768038  21646.252333   -397.666360  6  5  2  84       
PG17  14260.783571   3095.771821 -21759.133697    510.903825  5  5  4  73       
PG18 -18487.376604  -7342.622010  17634.430079    317.405886  4  3  3  78       
PG19  16449.052078  -6314.292024 -20092.600583     58.470747  6  7  4  89       
PG20  14092.393227  -8683.652113  20695.220595    518.929261  2  3  3  99       
PG21  -7486.471062  16742.108254 -18317.163365    144.858615  5  7  3  82       
PG22   2717.827374  18953.924628 -18317.237314   -502.965968  2  6  4  85       
PG23 -20587.107717 -16779.033425  -1536.117164     52.160442  4  4  4  91       
PG24   2852.173890 -17137.258157 -20254.080437    243.400661  6  6  4  71       
PG25 -15760.428114 -20678.522025  -6354.697036    215.228387  5  2  5  97       
PG26 -18806.946371   1963.480982  18700.196093    138.825813     3  1  77       
PG27 -12094.223356  20899.737132  10446.254291   -198.682124  5  7  3  98       
PG28  19371.589194   4287.055954 -17014.013454    493.211859  3  5  4  80       
PG29  -5665.799638 -19644.294685  16872.808643   -417.996563  5  7  3  74       
PG30  24652.984233    870.456170  10220.723206   -477.013982  6  5  5 106       
PG31 -25984.014999   6590.431654   -897.491061   -141.983866  3  4  3  79       
PG32 -15623.783639   1181.052953 -21310.995038     -4.441921  4  6  5  69       
*  2021  9 27 15 30  0.00000000
PG01  -1015.716121  15649.939602 -21653.004769    555.469535  5  5  3  69       
PG02  20803.661664 -15236.388743   7183.421591   -634.580972  5  6  4  73       
PG03   7637.228687  20139.015207 -15716.180498   -304.332797  3  4  6  87       
PG04    230.446208  25469.845677   7408.709898   -204.146845  5  7  7  81       
PG05   5785.645614 -14451.350668  21336.015030    -55.794767  3  4  3 103       
PG06  25363.008518  -5435.364738  -5784.654939     82.818006  3  7  5  89       
PG07  15345.746161   9514.000191  20002.840290    252.805247  2  6  3  84       
PG08  -6428.660420  25279.776519   3996.219266    -38.010935  4  7  4  94       
PG09   9056.010416  18735.573287  16421.537389   -361.452997  5  2  5 100       
PG10 -22761.963124 -10067.745693  -9551.393543   -212.027071  5  4  5  62       
PG11  23048.119400 -11694.513995   6081.927821 999999.999999
PG12  -5335.826977 -20451.583187 -16416.156059   -103.424492  5  6     87       
PG13  13105.198636 -20939.873490   9408.745838    191.486844  7  9  6  75       
PG14  22325.683599  10512.193783  -9895.610178     -7.455418  3  4  4  79       
PG15   3328.965084 -25942.013476   3014.440688   -118.057077  4  6  5  99       
PG16 -11096.889180   9922.304766  21758.584784   -397.672176  6  6  2  91       
PG17  13603.795070   5585.812425 -21683.510936    510.909227  5  5  4  74       
PG18 -16519.910520  -8095.894801  19180.184065    317.401676  4  3  3  74       
PG19  15838.849616  -4090.600307 -21159.054118     58.475193  5  7  3  81       
PG20  16000.001091  -7332.478073  19789.482789    518.929093  2  3  2  92       
PG21  -9536.199106  17410.889172 -16680.823550    144.859715  5  7  3  76       
PG22    835.859411  17799.876010 -19582.837740   -502.957736  1  6  4  86       
PG23 -20443.396654 -16967.636644   1324.263299     52.156081  4  5  3  91       
PG24   4952.172908 -17875.740075 -19130.057939    243.407389  6  6  3  97       
PG25 -14981.205743 -20293.013678  -9009.735773    215.233963  5  2  5  91       
PG26 -20323.290197    559.753928  17175.615864    138.829460     3  2  82       
PG27 -12036.108003  19513.580446  12900.640486   -198.686828  5  7  4 111       
PG28  20574.169103   5812.394573 -15084.457881    493.205355  4  4  4  88       
PG29  -5050.584429 -21363.676364  14858.423672   -418.001889  4  7  4  82       
PG30  23498.611688   1505.485295  12585.115152   -477.017314  6  5  5  97       
PG31 -25815.948853   6294.825129  -3700.099975   -141.985427  3  5  4  77       
PG32 -15197.402780  -1265.889808 -21626.325007     -4.445243  4  6  4  58       
EOF
